STARLINK-5646           
1 55461U 23015N   25232.60546327  .00000795  00000+0  73923-4 0  9997
2 55461  43.0031 338.8044 0001313 269.4779  90.5913 15.02530753140504
STARLINK-5673           
1 55462U 23015P   25232.65417916  .00000383  00000+0  43437-4 0  9994
2 55462  43.0044 338.3106 0001370 272.2885  87.7801 15.02531914140511
STARLINK-5677           
1 55463U 23015Q   25232.59326293  .00001073  00000+0  94519-4 0  9999
2 55463  43.0051 338.7127 0001710 273.3044  86.7603 15.02536992140503
STARLINK-5676           
1 55464U 23015R   25232.64751881  .00000844  00000+0  77557-4 0  9999
2 55464  43.0049 338.2601 0001416 264.1764  95.8917 15.02536142140510
STARLINK-5674           
1 55465U 23015S   25232.58436880 -.00005063  00000+0 -35983-3 0  9998
2 55465  43.0051 338.6465 0001592 275.6826  84.3835 15.02552404140507
STARLINK-5628           
1 55466U 23015T   25232.63420338  .00002233  00000+0  18035-3 0  9999
2 55466  43.0040 338.1593 0001453 265.7258  94.3418 15.02526952140516
STARLINK-5679           
1 55467U 23015U   25232.59103635 -.00001939  00000+0 -12852-3 0  9998
2 55467  43.0041 338.6962 0001260 267.5832  92.4866 15.02522658140501
STARLINK-5672           
1 55468U 23015V   25232.57882509 -.00000558  00000+0 -26219-4 0  9990
2 55468  43.0073 338.6042 0002120 269.6449  90.4150 15.02528175140503
STARLINK-5681           
1 55469U 23015W   25232.64866440 -.00002451  00000+0 -16656-3 0  9992
2 55469  43.0028 338.2692 0001362 294.5338  65.5362 15.02510821140510
STARLINK-5708           
1 55470U 23015X   25232.77381442  .00000705  00000+0  67278-4 0  9997
2 55470  43.0043 337.4856 0001186 262.6521  97.4187 15.02538351140535
STARLINK-5711           
1 55471U 23015Y   25232.63863444 -.00009026  00000+0 -65319-3 0  9990
2 55471  43.0046 338.1926 0001843 273.6767  86.3864 15.02578500140516
STARLINK-5705           
1 55472U 23015Z   25232.57145106 -.00002349  00000+0 -15899-3 0  9991
2 55472  43.0042 326.4049 0001028 253.3298 106.7431 15.02511119140642
STARLINK-5687           
1 55473U 23015AA  25232.70337004  .00053822  00000+0  54170-3 0  9992
2 55473  42.9865 223.9784 0037934  60.8604 299.6050 15.63681153141854
STARLINK-5689           
1 55474U 23015AB  25232.74148857  .00000871  00000+0  79559-4 0  9998
2 55474  43.0056 351.0948 0001469 266.1430  93.9244 15.02532912140373
STARLINK-5650           
1 55475U 23015AC  25232.63087274  .00000740  00000+0  69857-4 0  9997
2 55475  43.0055 338.1352 0001536 275.2667  84.8000 15.02532374140513
STARLINK-5685           
1 55477U 23015AE  25232.56587514  .00000246  00000+0  33284-4 0  9999
2 55477  43.0076 326.3567 0001604 272.7835  87.2824 15.02539252140647
STARLINK-5691           
1 55478U 23015AF  25232.56477171  .00000121  00000+0  24001-4 0  9996
2 55478  43.0039 326.3478 0001270 267.3622  92.7075 15.02532491140648
STARLINK-5688           
1 55479U 23015AG  25232.70772138  .00001400  00000+0  11867-3 0  9990
2 55479  43.0052 325.7015 0001466 266.6369  93.4306 15.02532336140666
STARLINK-5690           
1 55480U 23015AH  25232.66168208  .00000149  00000+0  26124-4 0  9996
2 55480  43.0045 351.2722 0001311 264.3389  95.7304 15.02530354140363
STARLINK-5694           
1 55481U 23015AJ  25232.73704413  .00000000  00000+0  15092-4 0  9997
2 55481  43.0038 351.0628 0001195 274.0767  85.9938 15.02539863140376
STARLINK-5692           
1 55483U 23015AL  25232.72707839 -.00001753  00000+0 -11482-3 0  9999
2 55483  43.0009 350.9898 0001015 253.4442 106.6289 15.02518574140371
STARLINK-5696           
1 55484U 23015AM  25232.65169995 -.00000318  00000+0 -84918-5 0  9999
2 55484  43.0050 351.2811 0001168 268.0774  91.9935 15.02538483140360
STARLINK-5695           
1 55485U 23015AN  25232.40132781  .00000366  00000+0  42179-4 0  9999
2 55485  43.0068 352.8436 0001381 268.8426  91.2258 15.02534805140320
STARLINK-5704           
1 55486U 23015AP  25232.65391623  .00000358  00000+0  41583-4 0  9998
2 55486  43.0049 351.2539 0001350 268.1300  91.9388 15.02531508140369
STARLINK-5701           
1 55487U 23015AQ  25232.60186725  .00000288  00000+0  36425-4 0  9990
2 55487  43.0044 351.7661 0001305 269.5575  90.5118 15.02538548140351
STARLINK-5706           
1 55488U 23015AR  25232.64393277  .00000285  00000+0  36154-4 0  9993
2 55488  43.0051 351.2179 0001375 269.1357  90.9328 15.02533140140361
STARLINK-5371           
1 55489U 23015AS  25232.65725095  .00000423  00000+0  46414-4 0  9996
2 55489  43.0053 351.3233 0001479 274.6984  85.3689 15.02535502140360
STARLINK-5373           
1 55490U 23015AT  25232.38911974  .00000528  00000+0  54151-4 0  9994
2 55490  43.0040 352.7429 0001131 274.1034  85.9679 15.02533605140329
STARLINK-5364           
1 55491U 23015AU  25232.57575124 -.00000199  00000+0  32311-6 0  9990
2 55491  43.0051 325.5651 0001637 279.2210  80.8447 15.02531369140658
STARLINK-5013           
1 55492U 23015AV  25232.71373281  .00000625  00000+0  61357-4 0  9990
2 55492  43.0064 350.8819 0001284 270.3328  89.7367 15.02540855140378
STARLINK-5362           
1 55493U 23015AW  25232.65059133 -.00005306  00000+0 -37782-3 0  9998
2 55493  43.0043 351.2654 0000660 187.5362 172.5471 15.02553209140365
STARLINK-5344           
1 55494U 23015AX  25232.63504932  .00000547  00000+0  55578-4 0  9993
2 55494  43.0066 351.1500 0001110 287.7731  72.2990 15.02550435140364
STARLINK-5100           
1 55495U 23015AY  25232.56143813 -.00000772  00000+0 -42045-4 0  9990
2 55495  43.0048 326.3219 0001349 265.3522  94.7166 15.02539412140647
STARLINK-5363           
1 55497U 23015BA  25232.83337750  .00000246  00000+0  33272-4 0  9993
2 55497  43.0041 350.0578 0001289 265.9618  94.1077 15.02531243140390
STARLINK-5365           
1 55498U 23015BB  25232.69154133  .00000071  00000+0  20361-4 0  9991
2 55498  43.0069 350.7130 0001771 273.0286  87.0354 15.02533777140370
STARLINK-5366           
1 55499U 23015BC  25232.68488247 -.00000289  00000+0 -63192-5 0  9990
2 55499  43.0042 350.6629 0001131 260.1592  99.9123 15.02532083141120
STARLINK-5141           
1 55500U 23015BD  25232.69709668 -.00001311  00000+0 -81965-4 0  9991
2 55500  43.0052 350.7561 0001290 272.0063  88.0631 15.02538672140370
STARLINK-5367           
1 55501U 23015BE  25232.68709503  .00000335  00000+0  39852-4 0  9990
2 55501  43.0052 350.6722 0001239 269.6836  90.3864 15.02538362140372
STARLINK-5749           
1 55569U 23020A   25232.78415792 -.00000243  00000+0 -29420-5 0  9996
2 55569  43.0046  16.6692 0001231 270.6409  89.4292 15.02534881139761
STARLINK-5737           
1 55570U 23020B   25232.85280919  .00006662  00000+0  50713-3 0  9993
2 55570  42.9996  16.3245 0000749 164.1950 195.8916 15.02585783138702
STARLINK-5739           
1 55571U 23020C   25232.84730409 -.00000012  00000+0  14162-4 0  9990
2 55571  43.0047  16.2857 0001224 267.8134  92.2568 15.02537535138709
STARLINK-5732           
1 55572U 23020D   25232.70990453  .00000513  00000+0  53022-4 0  9996
2 55572  43.0034  16.9720 0001219 274.3725  85.6978 15.02540878138687
STARLINK-5738           
1 55573U 23020E   25232.77750539 -.00002389  00000+0 -16188-3 0  9999
2 55573  43.0047  16.6223 0001213 257.7722 102.2984 15.02524520138693
STARLINK-5747           
1 55574U 23020F   25232.70103142  .00000109  00000+0  23165-4 0  9995
2 55574  43.0046  16.9064 0001407 271.9793  88.0889 15.02532328138689
STARLINK-5745           
1 55575U 23020G   25232.70659984 -.00000715  00000+0 -37893-4 0  9994
2 55575  43.0082  16.9498 0000911 261.0747  98.9992 15.02522149138684
STARLINK-5751           
1 55576U 23020H   25232.74693764 -.00000344  00000+0 -10361-4 0  9992
2 55576  43.0043 350.4038 0001203 268.5857  91.4848 15.02533643138990
STARLINK-5752           
1 55577U 23020J   25232.83619813  .00000185  00000+0  28776-4 0  9996
2 55577  43.0044  16.1359 0001084 262.4887  97.5832 15.02532028138702
STARLINK-5754           
1 55579U 23020L   25232.68327212 -.00000104  00000+0  73740-5 0  9994
2 55579  43.0056  16.7758 0001236 270.5293  89.5408 15.02534427138688
STARLINK-5757           
1 55580U 23020M   25232.74471700  .00000671  00000+0  64742-4 0  9994
2 55580  43.0058 350.3865 0001489 263.7124  96.3549 15.02535442138999
STARLINK-5753           
1 55581U 23020N   25232.69769720  .00001121  00000+0  98061-4 0  9993
2 55581  43.0067  16.8818 0001320 267.8939  92.1752 15.02540003138680
STARLINK-5741           
1 55582U 23020P   25232.70906254  .00001184  00000+0  10271-3 0  9996
2 55582  43.0045   3.9999 0001368 270.4795  89.5890 15.02533283138838
STARLINK-5742           
1 55583U 23020Q   25232.75752081 -.00000199  00000+0  31451-6 0  9991
2 55583  43.0039  16.4701 0001100 267.7344  92.3372 15.02532723138694
STARLINK-5736           
1 55584U 23020R   25232.75530182 -.00000714  00000+0 -37817-4 0  9992
2 55584  43.0044  16.4534 0001181 273.4674  86.6033 15.02531185138695
STARLINK-5769           
1 55585U 23020S   25232.72016552  .00001766  00000+0  14582-3 0  9999
2 55585  43.0065   4.0909 0001106 265.8660  94.2056 15.02517159138836
STARLINK-5767           
1 55586U 23020T   25232.68106302  .00000098  00000+0  22378-4 0  9998
2 55586  43.0061  16.7597 0001820 268.8411  91.2223 15.02530670138685
STARLINK-5727           
1 55587U 23020U   25232.75307271 -.00000292  00000+0 -65576-5 0  9991
2 55587  43.0050  16.3749 0001284 276.5875  83.4821 15.02533314138699
STARLINK-5728           
1 55588U 23020V   25232.87382817  .00000002  00000+0  15252-4 0  9996
2 55588  43.0056  15.6253 0001370 258.7951 101.2738 15.02532326138712
STARLINK-5697           
1 55589U 23020W   25232.74642183 -.00000279  00000+0 -55942-5 0  9997
2 55589  43.0041  16.3863 0001452 259.5194 100.5485 15.02534011138692
STARLINK-5762           
1 55590U 23020X   25232.46829768  .00000553  00000+0  56035-4 0  9990
2 55590  43.0051  17.7436 0001481 263.3914  96.6760 15.02535881138654
